[
    {
        "Altitude(m)": 557166.8353890887,
        "Argument of Periapsis(deg)": 0.026491964442854003,
        "Eccentricity": 0.0,
        "Inclination(deg)": 53.0,
        "Latitude(deg)": -14.278686521927213,
        "Longitude(deg)": -74.17936309433621,
        "Mean Anomaly(deg)": -17.815328529689648,
        "RAAN(deg)": 39.96057347411206,
        "Satellite Name": "Starlink Shell 1 194",
        "Satellite Number": 194,
        "Semi-Major Axis(m)": 6931778.249405717,
        "Time(s)": 760
    },
    {
        "Altitude(m)": 557031.0400794431,
        "Argument of Periapsis(deg)": 0.02684054292236524,
        "Eccentricity": 0.0,
        "Inclination(deg)": 53.0,
        "Latitude(deg)": -13.784293655522518,
        "Longitude(deg)": -73.8209129087389,
        "Mean Anomaly(deg)": -17.188497326132893,
        "RAAN(deg)": 39.96005470403459,
        "Satellite Name": "Starlink Shell 1 194",
        "Satellite Number": 194,
        "Semi-Major Axis(m)": 6931778.249405717,
        "Time(s)": 770
    },
    {
        "Altitude(m)": 556897.329630274,
        "Argument of Periapsis(deg)": 0.027189121401876473,
        "Eccentricity": 0.0,
        "Inclination(deg)": 53.0,
        "Latitude(deg)": -13.289220646774726,
        "Longitude(deg)": -73.4641297104356,
        "Mean Anomaly(deg)": -16.561666122576185,
        "RAAN(deg)": 39.95953593395712,
        "Satellite Name": "Starlink Shell 1 194",
        "Satellite Number": 194,
        "Semi-Major Axis(m)": 6931778.249405717,
        "Time(s)": 780
    },
    {
        "Altitude(m)": 556765.7460300389,
        "Argument of Periapsis(deg)": 0.02753769988138771,
        "Eccentricity": 0.0,
        "Inclination(deg)": 53.0,
        "Latitude(deg)": -12.793494793243028,
        "Longitude(deg)": -73.10894629031613,
        "Mean Anomaly(deg)": -15.934834919019519,
        "RAAN(deg)": 39.95901716387964,
        "Satellite Name": "Starlink Shell 1 194",
        "Satellite Number": 194,
        "Semi-Major Axis(m)": 6931778.249405717,
        "Time(s)": 790
    },
    {
        "Altitude(m)": 556636.3301739378,
        "Argument of Periapsis(deg)": 0.02788627836089895,
        "Eccentricity": 0.0,
        "Inclination(deg)": 53.0,
        "Latitude(deg)": -12.297143051956963,
        "Longitude(deg)": -72.75529662328039,
        "Mean Anomaly(deg)": -15.308003715462764,
        "RAAN(deg)": 39.958498393802174,
        "Satellite Name": "Starlink Shell 1 194",
        "Satellite Number": 194,
        "Semi-Major Axis(m)": 6931778.249405717,
        "Time(s)": 800
    },
    {
        "Altitude(m)": 556509.1218462691,
        "Argument of Periapsis(deg)": 0.02823485684041019,
        "Eccentricity": 0.0,
        "Inclination(deg)": 53.0,
        "Latitude(deg)": -11.80019205492795,
        "Longitude(deg)": -72.40311533726914,
        "Mean Anomaly(deg)": -14.681172511906055,
        "RAAN(deg)": 39.957979623724704,
        "Satellite Name": "Starlink Shell 1 194",
        "Satellite Number": 194,
        "Semi-Major Axis(m)": 6931778.249405717,
        "Time(s)": 810
    },
    {
        "Altitude(m)": 556384.1597033435,
        "Argument of Periapsis(deg)": 0.028583435319921423,
        "Eccentricity": 0.0,
        "Inclination(deg)": 53.0,
        "Latitude(deg)": -11.302668124363267,
        "Longitude(deg)": -72.05233718233059,
        "Mean Anomaly(deg)": -14.05434130834934,
        "RAAN(deg)": 39.95746085364723,
        "Satellite Name": "Starlink Shell 1 194",
        "Satellite Number": 194,
        "Semi-Major Axis(m)": 6931778.249405717,
        "Time(s)": 820
    },
    {
        "Altitude(m)": 556261.4812569872,
        "Argument of Periapsis(deg)": 0.028932013799432665,
        "Eccentricity": 0.0,
        "Inclination(deg)": 53.0,
        "Latitude(deg)": -10.804597287596858,
        "Longitude(deg)": -71.70289801260864,
        "Mean Anomaly(deg)": -13.427510104792635,
        "RAAN(deg)": 39.95694208356976,
        "Satellite Name": "Starlink Shell 1 194",
        "Satellite Number": 194,
        "Semi-Major Axis(m)": 6931778.249405717,
        "Time(s)": 830
    },
    {
        "Altitude(m)": 556141.1228585468,
        "Argument of Periapsis(deg)": 0.029280592278943897,
        "Eccentricity": 0.0,
        "Inclination(deg)": 53.0,
        "Latitude(deg)": -10.30600529174739,
        "Longitude(deg)": -71.35473425551443,
        "Mean Anomaly(deg)": -12.800678901235926,
        "RAAN(deg)": 39.95642331349229,
        "Satellite Name": "Starlink Shell 1 194",
        "Satellite Number": 194,
        "Semi-Major Axis(m)": 6931778.249405717,
        "Time(s)": 840
    },
    {
        "Altitude(m)": 556023.1196835327,
        "Argument of Periapsis(deg)": 0.029629170758455132,
        "Eccentricity": 0.0,
        "Inclination(deg)": 53.0,
        "Latitude(deg)": -9.806917618116554,
        "Longitude(deg)": -71.00778238096396,
        "Mean Anomaly(deg)": -12.173847697679212,
        "RAAN(deg)": 39.95590454341481,
        "Satellite Name": "Starlink Shell 1 194",
        "Satellite Number": 194,
        "Semi-Major Axis(m)": 6931778.249405717,
        "Time(s)": 850
    },
    {
        "Altitude(m)": 555907.5057167988,
        "Argument of Periapsis(deg)": 0.02997774923796637,
        "Eccentricity": 0.0,
        "Inclination(deg)": 53.0,
        "Latitude(deg)": -9.307359496340613,
        "Longitude(deg)": -70.66198005165805,
        "Mean Anomaly(deg)": -11.547016494122508,
        "RAAN(deg)": 39.95538577333734,
        "Satellite Name": "Starlink Shell 1 194",
        "Satellite Number": 194,
        "Semi-Major Axis(m)": 6931778.249405717,
        "Time(s)": 860
    },
    {
        "Altitude(m)": 555794.3137383468,
        "Argument of Periapsis(deg)": 0.030326327717477602,
        "Eccentricity": 0.0,
        "Inclination(deg)": 53.0,
        "Latitude(deg)": -8.807355918305584,
        "Longitude(deg)": -70.31726475198296,
        "Mean Anomaly(deg)": -10.920185290565744,
        "RAAN(deg)": 39.954867003259864,
        "Satellite Name": "Starlink Shell 1 194",
        "Satellite Number": 194,
        "Semi-Major Axis(m)": 6931778.249405717,
        "Time(s)": 870
    },
    {
        "Altitude(m)": 555683.5753097067,
        "Argument of Periapsis(deg)": 0.030674906196988847,
        "Eccentricity": 0.0,
        "Inclination(deg)": 53.0,
        "Latitude(deg)": -8.306931651840543,
        "Longitude(deg)": -69.97357493844855,
        "Mean Anomaly(deg)": -10.293354087009037,
        "RAAN(deg)": 39.954348233182394,
        "Satellite Name": "Starlink Shell 1 194",
        "Satellite Number": 194,
        "Semi-Major Axis(m)": 6931778.249405717,
        "Time(s)": 880
    },
    {
        "Altitude(m)": 555575.3207609341,
        "Argument of Periapsis(deg)": 0.031023484676500086,
        "Eccentricity": 0.0,
        "Inclination(deg)": 53.0,
        "Latitude(deg)": -7.80611125419879,
        "Longitude(deg)": -69.63084950923727,
        "Mean Anomaly(deg)": -9.666522883452378,
        "RAAN(deg)": 39.953829463104924,
        "Satellite Name": "Starlink Shell 1 194",
        "Satellite Number": 194,
        "Semi-Major Axis(m)": 6931778.249405717,
        "Time(s)": 890
    },
    {
        "Altitude(m)": 555469.5791782076,
        "Argument of Periapsis(deg)": 0.03137206315601132,
        "Eccentricity": 0.0,
        "Inclination(deg)": 53.0,
        "Latitude(deg)": -7.304919085340061,
        "Longitude(deg)": -69.28902727383773,
        "Mean Anomaly(deg)": -9.039691679895563,
        "RAAN(deg)": 39.95331069302745,
        "Satellite Name": "Starlink Shell 1 194",
        "Satellite Number": 194,
        "Semi-Major Axis(m)": 6931778.249405717,
        "Time(s)": 900
    },
    {
        "Altitude(m)": 555366.3783920553,
        "Argument of Periapsis(deg)": 0.03172064163552255,
        "Eccentricity": 0.0,
        "Inclination(deg)": 53.0,
        "Latitude(deg)": -6.803379321026941,
        "Longitude(deg)": -68.94804793563628,
        "Mean Anomaly(deg)": -8.412860476338905,
        "RAAN(deg)": 39.95279192294998,
        "Satellite Name": "Starlink Shell 1 194",
        "Satellite Number": 194,
        "Semi-Major Axis(m)": 6931778.249405717,
        "Time(s)": 910
    },
    {
        "Altitude(m)": 555265.7449662224,
        "Argument of Periapsis(deg)": 0.0320692201150338,
        "Eccentricity": 0.0,
        "Inclination(deg)": 53.0,
        "Latitude(deg)": -6.301515965743936,
        "Longitude(deg)": -68.60785156171659,
        "Mean Anomaly(deg)": -7.786029272782197,
        "RAAN(deg)": 39.95227315287251,
        "Satellite Name": "Starlink Shell 1 194",
        "Satellite Number": 194,
        "Semi-Major Axis(m)": 6931778.249405717,
        "Time(s)": 920
    },
    {
        "Altitude(m)": 555167.7041871283,
        "Argument of Periapsis(deg)": 0.032417798594545036,
        "Eccentricity": 0.0,
        "Inclination(deg)": 53.0,
        "Latitude(deg)": -5.7993528654545115,
        "Longitude(deg)": -68.26837805274158,
        "Mean Anomaly(deg)": -7.159198069225438,
        "RAAN(deg)": 39.95175438279503,
        "Satellite Name": "Starlink Shell 1 194",
        "Satellite Number": 194,
        "Semi-Major Axis(m)": 6931778.249405717,
        "Time(s)": 930
    },
    {
        "Altitude(m)": 555072.280054009,
        "Argument of Periapsis(deg)": 0.03276637707405627,
        "Eccentricity": 0.0,
        "Inclination(deg)": 53.0,
        "Latitude(deg)": -5.296913720206507,
        "Longitude(deg)": -67.92956812578721,
        "Mean Anomaly(deg)": -6.532366865668779,
        "RAAN(deg)": 39.95123561271756,
        "Satellite Name": "Starlink Shell 1 194",
        "Satellite Number": 194,
        "Semi-Major Axis(m)": 6931778.249405717,
        "Time(s)": 940
    }
]